{"type":"FeatureCollection","features":[{"type":"Feature","geometry":{"type":"Polygon","coordinates":[[[-0.262333745701053,51.5963478450022],[-0.259777012154832,51.5941939123848],[-0.257547662243722,51.5921754379781],[-0.252944572702507,51.5889007418455],[-0.249504913988761,51.5855660890009],[-0.248234179694855,51.584313731365],[-0.25172870822786,51.5833759019946],[-0.254264459518889,51.5816690128647],[-0.254544563548069,51.5797719799541],[-0.252679244398852,51.5751435315178],[-0.251265214614301,51.573153614389],[-0.253052793820057,51.5723953037577],[-0.252514167958524,51.5715182820141],[-0.249330575691951,51.5688702092294],[-0.248565277964657,51.568511192703],[-0.247001614371345,51.5686189206943],[-0.247361599809296,51.5689572570143],[-0.246541017432054,51.5690348799229],[-0.246071573779433,51.5698077425801],[-0.2465495696977,51.5700241363864],[-0.245966343869141,51.5710081899046],[-0.246733635777421,51.5715883437269],[-0.245962667620594,51.5722162830064],[-0.245216880099671,51.5719169539562],[-0.244199171346344,51.5725844949299],[-0.243895903081476,51.5723063566544],[-0.242428363346831,51.5725004689964],[-0.242452565757022,51.5728158281403],[-0.241374431492776,51.5727190298065],[-0.241131123645669,51.5721297965471],[-0.240049870738549,51.5723821694728],[-0.240010090011367,51.5720945098876],[-0.238849228716783,51.5722376336851],[-0.237990483250151,51.5717772883698],[-0.238159982366927,51.5720711822462],[-0.23761156579389,51.5724660643853],[-0.235858759997574,51.572297822461],[-0.235479758486623,51.5725473961937],[-0.235668614335251,51.5723099765516],[-0.234560992285474,51.5717735314209],[-0.233417227576263,51.5719829575028],[-0.232249098463514,51.5709594362986],[-0.228794004019311,51.5679708755235],[-0.225464942627918,51.5658676174004],[-0.220660399305213,51.5616640860005],[-0.218498233039517,51.5593360552021],[-0.213486677002519,51.5551909320072],[-0.203700949695321,51.546962393829],[-0.203502884364712,51.5467760309005],[-0.203432400717816,51.5467093065561],[-0.201918606288312,51.5452841744629],[-0.191467608561554,51.5362923581516],[-0.193016132577393,51.5339498423501],[-0.192347014575535,51.5332608562808],[-0.192997934912252,51.5319835606484],[-0.196479321959949,51.5276386356437],[-0.197339740607098,51.5278926212151],[-0.197801829405802,51.5278996092171],[-0.198174940299363,51.5304179662177],[-0.201079967472329,51.5319058552281],[-0.20167541569191,51.5325599953252],[-0.203013026994402,51.5328955541319],[-0.203061890380871,51.5328950499127],[-0.207814035554874,51.5327920069384],[-0.211186423402787,51.5319254415319],[-0.215266647764194,51.5313605595917],[-0.21510696879434,51.5301701760195],[-0.215855751894516,51.5297523895113],[-0.216020723983129,51.527920360249],[-0.217791000545462,51.5286004244015],[-0.223728265491944,51.5299467910539],[-0.225433971441795,51.5301603013706],[-0.227659506765089,51.5299143220922],[-0.22756201378156,51.5301545992211],[-0.228440758153743,51.5303191562848],[-0.230717348005316,51.5308699832446],[-0.233821247474086,51.5323311149968],[-0.234409495958749,51.5326382748266],[-0.237528634817977,51.5320050192192],[-0.243236010560196,51.5317648407112],[-0.246281570983423,51.5327375094287],[-0.247265526070007,51.5334898604141],[-0.250752237107332,51.5341474327513],[-0.250877874536536,51.5338795038135],[-0.255644957835788,51.5339789818253],[-0.255985074110447,51.5339498847426],[-0.256545918476375,51.534966293135],[-0.257740996366156,51.5353673129947],[-0.260353373764622,51.5344927683548],[-0.263318394674117,51.532668462386],[-0.264760943844658,51.5321584411088],[-0.264866861432509,51.5315716347991],[-0.266251288494755,51.5306871995155],[-0.26857417728811,51.5298226824246],[-0.269680388783758,51.5300016095786],[-0.270271216631839,51.5297667061379],[-0.27044563007722,51.5300465950476],[-0.274570643111017,51.5295586312287],[-0.279224530348024,51.5287808158383],[-0.280371852466567,51.5283467926226],[-0.282957482400945,51.5288459055948],[-0.285725746983936,51.5291719727384],[-0.289382581578878,51.5316828392574],[-0.284012385062602,51.533531618032],[-0.283479177993753,51.532807957272],[-0.281484072796813,51.5332309745889],[-0.280959450006156,51.532588143272],[-0.278964094642898,51.533227502427],[-0.278485381698495,51.5345832585928],[-0.278116622846963,51.5345507290072],[-0.277769393804216,51.5350715115487],[-0.281817393753696,51.5381067343739],[-0.282457376588103,51.538648675971],[-0.28662990656124,51.5367840352196],[-0.293396270410537,51.53492804946],[-0.295165606298529,51.5348771541108],[-0.295755469146931,51.5352911906736],[-0.29644758037209,51.5352586922184],[-0.299852310864077,51.5330823607187],[-0.302704988863715,51.5319865304008],[-0.307453582279767,51.5330870579547],[-0.306264604133883,51.5341769899795],[-0.305948608561015,51.5393669337997],[-0.30471803763841,51.5398588717779],[-0.308517711348242,51.5431986987867],[-0.30798663079506,51.5444140809335],[-0.308875232096934,51.5452073379745],[-0.30711297450527,51.545329830657],[-0.308646363923526,51.5464674082677],[-0.311479130831358,51.547566184305],[-0.312526297881848,51.5490280860186],[-0.317660624976379,51.5515685225484],[-0.327006121250583,51.5550308121375],[-0.335555531666752,51.5565568991247],[-0.334857082126507,51.5578663736655],[-0.333930197310544,51.5576981983501],[-0.334034842324087,51.5587546615113],[-0.331264837354128,51.5614142883584],[-0.330042382729355,51.56223139636],[-0.328237078551993,51.5625405944302],[-0.328672097370254,51.5659749832872],[-0.329689402526453,51.5661927201849],[-0.329849338123979,51.5671282180051],[-0.325051402557729,51.5682592364745],[-0.325216392497237,51.5684573233946],[-0.322148244821014,51.5696770562365],[-0.324804688150537,51.5733143209826],[-0.325352451810086,51.5759356317709],[-0.326587520367022,51.5782900161725],[-0.326634185132864,51.5786006729965],[-0.320199754188027,51.580374892141],[-0.317025089189847,51.5820750914636],[-0.31253249193528,51.5844525800964],[-0.30678464014985,51.5865154366199],[-0.304696795432772,51.5870525523909],[-0.301447504787293,51.5872714884355],[-0.28245801200774,51.5850516639016],[-0.282333959135817,51.5858399131051],[-0.284197440660582,51.5904955376009],[-0.28563943939032,51.5918967295564],[-0.288934236464643,51.592821195592],[-0.290405901610672,51.5935438008452],[-0.287051822242211,51.5945628319685],[-0.286248533176676,51.5949363412211],[-0.285774999335346,51.594728702117],[-0.285568620796434,51.5952106859021],[-0.283353330016794,51.5957428255378],[-0.276510294245565,51.5965099187427],[-0.276964355852371,51.5969372657706],[-0.273067314998928,51.5983866996635],[-0.270988838732912,51.598384004519],[-0.267113115479641,51.6003719676663],[-0.262333745701053,51.5963478450022]]]},"properties":{"LAD25CD":"E09000005","LAD25NM":"Brent"}},{"type":"Feature","geometry":{"type":"Polygon","coordinates":[[[-0.327006121250583,51.5550308121375],[-0.317660624976379,51.5515685225484],[-0.312526297881848,51.5490280860186],[-0.311479130831358,51.547566184305],[-0.308646363923526,51.5464674082677],[-0.30711297450527,51.545329830657],[-0.308875232096934,51.5452073379745],[-0.30798663079506,51.5444140809335],[-0.308517711348242,51.5431986987867],[-0.30471803763841,51.5398588717779],[-0.305948608561015,51.5393669337997],[-0.306264604133883,51.5341769899795],[-0.307453582279767,51.5330870579547],[-0.302704988863715,51.5319865304008],[-0.299852310864077,51.5330823607187],[-0.29644758037209,51.5352586922184],[-0.295755469146931,51.5352911906736],[-0.295165606298529,51.5348771541108],[-0.293396270410537,51.53492804946],[-0.28662990656124,51.5367840352196],[-0.282457376588103,51.538648675971],[-0.281817393753696,51.5381067343739],[-0.277769393804216,51.5350715115487],[-0.278116622846963,51.5345507290072],[-0.278485381698495,51.5345832585928],[-0.278964094642898,51.533227502427],[-0.280959450006156,51.532588143272],[-0.281484072796813,51.5332309745889],[-0.283479177993753,51.532807957272],[-0.284012385062602,51.533531618032],[-0.289382581578878,51.5316828392574],[-0.285725746983936,51.5291719727384],[-0.282957482400945,51.5288459055948],[-0.280371852466567,51.5283467926226],[-0.279224530348024,51.5287808158383],[-0.274570643111017,51.5295586312287],[-0.27044563007722,51.5300465950476],[-0.270271216631839,51.5297667061379],[-0.269680388783758,51.5300016095786],[-0.26857417728811,51.5298226824246],[-0.266251288494755,51.5306871995155],[-0.264866861432509,51.5315716347991],[-0.264760943844658,51.5321584411088],[-0.263318394674117,51.532668462386],[-0.260353373764622,51.5344927683548],[-0.257740996366156,51.5353673129947],[-0.256545918476375,51.534966293135],[-0.255985074110447,51.5339498847426],[-0.255644957835788,51.5339789818253],[-0.250877874536536,51.5338795038135],[-0.250752237107332,51.5341474327513],[-0.247265526070007,51.5334898604141],[-0.246281570983423,51.5327375094287],[-0.246975847906357,51.5317775883409],[-0.245256656076301,51.5312182262753],[-0.245390921561337,51.5310420588775],[-0.246999780702846,51.5306888754293],[-0.249870747418338,51.5288700580858],[-0.250555873501414,51.5278115479067],[-0.250331435289123,51.5270599042373],[-0.252538390202769,51.524986821142],[-0.251768043195903,51.522117085625],[-0.250319092816483,51.5201852371386],[-0.250690282885466,51.5192006039347],[-0.2489713522111,51.5138906006],[-0.246435348971348,51.5108223006416],[-0.245134655699555,51.5067695958267],[-0.246466730937967,51.506743076517],[-0.245673763200907,51.5046286097276],[-0.247972376286306,51.5043611661312],[-0.248089807238703,51.5046090861783],[-0.249256438152769,51.5044422144784],[-0.249421747147641,51.504677135586],[-0.249917977859926,51.5044346060095],[-0.251079138134178,51.5046508769591],[-0.252483672614707,51.5044966724953],[-0.252525892049911,51.5047136124284],[-0.253751509949108,51.5045512888441],[-0.253670894390568,51.5042845003787],[-0.255064221072407,51.5043292493345],[-0.25336434429858,51.5028933101777],[-0.253040909966186,51.5014223342239],[-0.252771583657548,51.4998884971779],[-0.255606406879975,51.496033357025],[-0.255422123395226,51.4949783438977],[-0.261483309223535,51.494641320646],[-0.267676633366511,51.4939192512037],[-0.269061038858674,51.4940263209257],[-0.271303045031441,51.4948013563848],[-0.272401695976202,51.4961562082685],[-0.274176319018755,51.4972927919943],[-0.277402382334547,51.4990864619229],[-0.280772402092,51.5028475273753],[-0.285711510361579,51.500783729505],[-0.288668716199761,51.5008324169837],[-0.293897823008893,51.5015775552208],[-0.300669386722828,51.4993292247146],[-0.299946959438523,51.4978560126734],[-0.297537161815247,51.4948847143544],[-0.301132918675038,51.4944055623441],[-0.301377122233943,51.495194213918],[-0.305851829897637,51.4961828825053],[-0.305431203745424,51.4945373621448],[-0.308405375534104,51.4935741223266],[-0.311911168808834,51.4919714576592],[-0.313884658435713,51.4936080917017],[-0.314388695555614,51.4934571216358],[-0.315085314491169,51.4939643848471],[-0.31446791118935,51.4943572972709],[-0.315712070935597,51.495348247441],[-0.31528026854231,51.4955548539354],[-0.315794343146763,51.4959073462949],[-0.31918147076384,51.494217300145],[-0.323414300516202,51.4958965878765],[-0.323898551965763,51.4957165614759],[-0.324675743393902,51.4959937592392],[-0.326127384627688,51.495003655658],[-0.327341220314482,51.4960024130722],[-0.329945002137216,51.4950205315316],[-0.331231243629166,51.4955095577543],[-0.335264555913964,51.496157912716],[-0.342278725726975,51.4959877947085],[-0.349708960195708,51.4989814550508],[-0.350619148399036,51.4991066570781],[-0.358052570966066,51.497767974407],[-0.36187789583015,51.4960874183171],[-0.363117893266542,51.4958757777258],[-0.363734025283402,51.4946959784486],[-0.365363324880322,51.4933136768236],[-0.365794059745001,51.4936539066133],[-0.366986978925952,51.4928033785343],[-0.368354836430718,51.492298900671],[-0.367912694991677,51.4917891591151],[-0.371851047191365,51.4904761549128],[-0.371919091997922,51.4909905553857],[-0.37249726445803,51.4910277041521],[-0.373809044711411,51.4919601492431],[-0.375012564856431,51.4939960252446],[-0.375823922335663,51.4953916108452],[-0.377903011367198,51.4954693003247],[-0.377876677159829,51.4966066454792],[-0.381841111112896,51.4952239999719],[-0.384546938967056,51.4946830551931],[-0.386575408414563,51.4946852990474],[-0.389375031127265,51.4951579350217],[-0.406918399587474,51.499666397136],[-0.403833880792223,51.5029193913846],[-0.403819232556505,51.5029338442389],[-0.402859076450413,51.5035818364065],[-0.40023371074684,51.5042927083694],[-0.393513489171671,51.5070117288873],[-0.390422060131917,51.5132045617256],[-0.38911607191857,51.5146651690058],[-0.384947709027511,51.5163736841754],[-0.383430682302964,51.5174879617836],[-0.383429331370769,51.5174891940024],[-0.381788639446717,51.5186204239688],[-0.376145316078738,51.5249452053795],[-0.376371680549651,51.5288849019863],[-0.380996722618005,51.5294116942163],[-0.386642781660345,51.5303991543713],[-0.387115192662479,51.5295742113576],[-0.389276233506824,51.5308027094094],[-0.392648908258066,51.5314488412762],[-0.405321733528102,51.5332205900389],[-0.411049520079079,51.5342901849694],[-0.411845422020108,51.5340728128224],[-0.41222056534672,51.5344946850869],[-0.413487345767395,51.5347120225219],[-0.413819749243935,51.5357438398819],[-0.414763950786028,51.535975869528],[-0.415306149337927,51.5365565818344],[-0.417431210773785,51.5366461544399],[-0.417489782128102,51.5378387030789],[-0.419409329709237,51.5382914102594],[-0.419548090734817,51.5387062290109],[-0.418159934292837,51.5391540381944],[-0.419413609326482,51.5399332437801],[-0.419402613769689,51.5403900828504],[-0.418269884101982,51.5400930288092],[-0.416756112004966,51.5401592575733],[-0.405008718566556,51.5424900659195],[-0.397831391499307,51.542329964419],[-0.395285532006663,51.5425516328212],[-0.39634437286305,51.5457040606883],[-0.396540579884704,51.5459670729562],[-0.397890417634814,51.5456669270353],[-0.398706173814887,51.5478973597145],[-0.394879242969686,51.5476465813093],[-0.394986043334604,51.548038708674],[-0.394946979967999,51.5487312776824],[-0.394210632799448,51.5486144950032],[-0.392796401622069,51.5489689413701],[-0.385035861073688,51.5512586042035],[-0.377656412711582,51.5546995657334],[-0.377843376019978,51.5549770635102],[-0.375881513503431,51.5530846039967],[-0.373342930044203,51.5540964084801],[-0.372863810973885,51.553748820779],[-0.362519599314103,51.5560431739064],[-0.362674841911475,51.5563288320378],[-0.362125241303673,51.556610754484],[-0.362300315676161,51.5572483593151],[-0.347548976989506,51.5596573954049],[-0.345611192404932,51.5584501515109],[-0.343605546201471,51.5577170258085],[-0.338302842811169,51.5572258461615],[-0.335555531666752,51.5565568991247],[-0.327006121250583,51.5550308121375]]]},"properties":{"LAD25CD":"E09000009","LAD25NM":"Ealing"}},{"type":"Feature","geometry":{"type":"Polygon","coordinates":[[[-0.233821247474086,51.5323311149968],[-0.230717348005316,51.5308699832446],[-0.228440758153743,51.5303191562848],[-0.228730175524929,51.5299056451657],[-0.227429972121213,51.5279963598706],[-0.227229453930617,51.5247772390701],[-0.22656793126906,51.5246259086028],[-0.226696960668858,51.5219392475958],[-0.228276943623204,51.5210951812624],[-0.22654329333555,51.5195770779274],[-0.222464368050734,51.5154070123675],[-0.220235964075799,51.5117327975875],[-0.219315925780897,51.5095542975641],[-0.217847732543837,51.5097526992018],[-0.218043289167948,51.5102242389612],[-0.217190220202911,51.5103992438768],[-0.216452382074861,51.5091126499001],[-0.215813858155986,51.50915345265],[-0.215541653076812,51.5083920444881],[-0.215197890345675,51.5076513520936],[-0.21611922117336,51.5075212021927],[-0.215938670705129,51.506400335939],[-0.217975379717538,51.5061431105204],[-0.217001985360401,51.5045041715512],[-0.216976653096357,51.504466149606],[-0.215028905986165,51.502185301436],[-0.213440028889613,51.5001774665915],[-0.210504590283717,51.4983468511015],[-0.207951410590124,51.4960315668214],[-0.20733489853243,51.4961527942183],[-0.203085508305625,51.4933714670801],[-0.201833011307257,51.4918452953471],[-0.202364641392252,51.4916615386255],[-0.197966108552929,51.4879071841827],[-0.196405191810415,51.4871869018364],[-0.195906065404788,51.4873707105146],[-0.193630274569299,51.4858905019148],[-0.19077081676291,51.483165686506],[-0.188262412705968,51.4809666762654],[-0.186521019063067,51.4798688451479],[-0.183876303255074,51.4774431317481],[-0.183805527855666,51.4774336059909],[-0.183852266028706,51.4774349844857],[-0.183866769488335,51.4774354123296],[-0.184170020760942,51.4771789198989],[-0.182467545555604,51.4771138780178],[-0.180414164393764,51.4777070216692],[-0.179362623599558,51.4776232565741],[-0.18098872191042,51.4726000365224],[-0.183063337415531,51.4692172506088],[-0.184471881774165,51.4676828927794],[-0.186285001094092,51.4665279545318],[-0.188549060001918,51.4658377980615],[-0.188552082511586,51.4658368762172],[-0.1904362013183,51.4652624879367],[-0.194158689488193,51.4648405383887],[-0.197143620812638,51.4649759287362],[-0.197375571482652,51.4652109486777],[-0.197547491532176,51.4649933759448],[-0.197617393494121,51.4649937836225],[-0.199528076954256,51.4650049066281],[-0.202757174305121,51.4653390432813],[-0.210531863519603,51.4671372876434],[-0.210505558181644,51.4677362508058],[-0.210985780371417,51.4673114750853],[-0.211307445646197,51.4674067566488],[-0.216783617128213,51.469605660671],[-0.221501731748251,51.4734821051337],[-0.222554214129561,51.4747453454141],[-0.223286048456569,51.4766955878851],[-0.223547941429191,51.4773934531031],[-0.224024493505577,51.4816991606601],[-0.223616529824783,51.4818944189353],[-0.224077293967389,51.4824337582287],[-0.225005632658715,51.484306144254],[-0.226447857704594,51.4860472443573],[-0.227573960690401,51.4874066045974],[-0.227605756822565,51.4874449854341],[-0.228668819635466,51.4888268163116],[-0.232784836460965,51.4901874369611],[-0.234368475894577,51.4904110907255],[-0.234462639775293,51.4904063058441],[-0.234590814138328,51.4903997917965],[-0.234595171525573,51.4903995705115],[-0.240493936129523,51.4900996275033],[-0.243059991888701,51.489433058856],[-0.244494827875011,51.4887130546613],[-0.244511877048261,51.4887044996573],[-0.24451713921975,51.488702205231],[-0.244942229294421,51.4890016985478],[-0.245565857109029,51.4900526460943],[-0.244419991253253,51.4979389124486],[-0.24498272220723,51.4978967460234],[-0.245238856675817,51.4983063553719],[-0.245259712183608,51.4983397078799],[-0.245929225229688,51.4981413308624],[-0.249203165323049,51.4969498993697],[-0.251290048414711,51.4998583601625],[-0.253040909966186,51.5014223342239],[-0.25336434429858,51.5028933101777],[-0.255064221072407,51.5043292493345],[-0.253670894390568,51.5042845003787],[-0.253751509949108,51.5045512888441],[-0.252525892049911,51.5047136124284],[-0.252483672614707,51.5044966724953],[-0.251079138134178,51.5046508769591],[-0.249917977859926,51.5044346060095],[-0.249421747147641,51.504677135586],[-0.249256438152769,51.5044422144784],[-0.248089807238703,51.5046090861783],[-0.247972376286306,51.5043611661312],[-0.245673763200907,51.5046286097276],[-0.246466730937967,51.506743076517],[-0.245134655699555,51.5067695958267],[-0.246435348971348,51.5108223006416],[-0.2489713522111,51.5138906006],[-0.250690282885466,51.5192006039347],[-0.250319092816483,51.5201852371386],[-0.251768043195903,51.522117085625],[-0.252538390202769,51.524986821142],[-0.250331435289123,51.5270599042373],[-0.250555873501414,51.5278115479067],[-0.249870747418338,51.5288700580858],[-0.246999780702846,51.5306888754293],[-0.245390921561337,51.5310420588775],[-0.245256656076301,51.5312182262753],[-0.246975847906357,51.5317775883409],[-0.246281570983423,51.5327375094287],[-0.243236010560196,51.5317648407112],[-0.237528634817977,51.5320050192192],[-0.234409495958749,51.5326382748266],[-0.233821247474086,51.5323311149968]]]},"properties":{"LAD25CD":"E09000013","LAD25NM":"Hammersmith and Fulham"}},{"type":"Feature","geometry":{"type":"Polygon","coordinates":[[[-0.305573663802058,51.6341206594062],[-0.304460793558934,51.6320336641908],[-0.292643324982894,51.621742945729],[-0.287385119527708,51.617015900749],[-0.281030197237065,51.6122723939141],[-0.278348902999475,51.6097853633469],[-0.267113115479641,51.6003719676663],[-0.270988838732912,51.598384004519],[-0.273067314998928,51.5983866996635],[-0.276964355852371,51.5969372657706],[-0.276510294245565,51.5965099187427],[-0.283353330016794,51.5957428255378],[-0.285568620796434,51.5952106859021],[-0.285774999335346,51.594728702117],[-0.286248533176676,51.5949363412211],[-0.287051822242211,51.5945628319685],[-0.290405901610672,51.5935438008452],[-0.288934236464643,51.592821195592],[-0.28563943939032,51.5918967295564],[-0.284197440660582,51.5904955376009],[-0.282333959135817,51.5858399131051],[-0.28245801200774,51.5850516639016],[-0.301447504787293,51.5872714884355],[-0.304696795432772,51.5870525523909],[-0.30678464014985,51.5865154366199],[-0.31253249193528,51.5844525800964],[-0.317025089189847,51.5820750914636],[-0.320199754188027,51.580374892141],[-0.326634185132864,51.5786006729965],[-0.326587520367022,51.5782900161725],[-0.325352451810086,51.5759356317709],[-0.324804688150537,51.5733143209826],[-0.322148244821014,51.5696770562365],[-0.325216392497237,51.5684573233946],[-0.325051402557729,51.5682592364745],[-0.329849338123979,51.5671282180051],[-0.329689402526453,51.5661927201849],[-0.328672097370254,51.5659749832872],[-0.328237078551993,51.5625405944302],[-0.330042382729355,51.56223139636],[-0.331264837354128,51.5614142883584],[-0.334034842324087,51.5587546615113],[-0.333930197310544,51.5576981983501],[-0.334857082126507,51.5578663736655],[-0.335555531666752,51.5565568991247],[-0.338302842811169,51.5572258461615],[-0.343605546201471,51.5577170258085],[-0.345611192404932,51.5584501515109],[-0.347548976989506,51.5596573954049],[-0.362300315676161,51.5572483593151],[-0.362125241303673,51.556610754484],[-0.362674841911475,51.5563288320378],[-0.362519599314103,51.5560431739064],[-0.372863810973885,51.553748820779],[-0.373342930044203,51.5540964084801],[-0.375881513503431,51.5530846039967],[-0.377843376019978,51.5549770635102],[-0.380241090382526,51.5590476859232],[-0.380088715629006,51.5595858001673],[-0.380422439051526,51.5608568229896],[-0.38233243396987,51.5628796990634],[-0.381892290346184,51.5630766870671],[-0.382399541453545,51.5636010822359],[-0.382358611270806,51.5648308690813],[-0.383296018626681,51.5672799486546],[-0.385883078066173,51.5708974931874],[-0.386475786941669,51.5715534313032],[-0.385651517379384,51.5721336223829],[-0.388075351840062,51.5749917997125],[-0.387536201348649,51.5752527212504],[-0.388544818560857,51.5776857033657],[-0.391563901542468,51.581559051105],[-0.390978402327779,51.5816977634338],[-0.391044193673723,51.5830483172959],[-0.391984929059064,51.5882743635375],[-0.394459472115783,51.590420406584],[-0.395490674494017,51.5901938167569],[-0.395573576806697,51.5905935601608],[-0.395532851232754,51.5918844865376],[-0.396366445066841,51.5936159625007],[-0.396501870140447,51.5950527234307],[-0.39769618244992,51.5968808155259],[-0.400334603316673,51.5974161962944],[-0.39992651454445,51.5981789513959],[-0.401172349725285,51.5995605071009],[-0.402337877317186,51.6019398057436],[-0.402478037533898,51.6051903462881],[-0.401760469398902,51.6066197393515],[-0.403215759027032,51.6090989967392],[-0.404003977890064,51.6131839726247],[-0.403988125680466,51.6131839864614],[-0.39946517299048,51.6134074673006],[-0.392678947906904,51.6151824338928],[-0.385871935681355,51.6158200428467],[-0.384571611905012,51.6161697515888],[-0.382026147813927,51.6174226518044],[-0.375839482692173,51.6181877991234],[-0.368174515273729,51.6206523784205],[-0.365536766081543,51.6213342243546],[-0.363431878763862,51.6225377559924],[-0.362621257698241,51.6235048165802],[-0.361792560366205,51.6237297725573],[-0.359678561696669,51.6252622284688],[-0.349222330428968,51.6269094985893],[-0.345106261842187,51.6283307961975],[-0.339889641971043,51.6307237430614],[-0.338283831127965,51.629472634266],[-0.333089080327958,51.6333844366913],[-0.332971366752564,51.6338359439735],[-0.332583185685678,51.633742328016],[-0.329982905777533,51.6353356695787],[-0.326546234454703,51.6367191621095],[-0.319792791191692,51.638220707369],[-0.317549393191407,51.6402163102182],[-0.316672244970353,51.6405355666504],[-0.312318486481636,51.6389613831763],[-0.305377121152003,51.6371078690018],[-0.304449971011893,51.6363487192482],[-0.305573663802058,51.6341206594062]]]},"properties":{"LAD25CD":"E09000015","LAD25NM":"Harrow"}},{"type":"Feature","geometry":{"type":"Polygon","coordinates":[[[-0.494210180014142,51.631052313393],[-0.493480882577229,51.6305614340614],[-0.491526450108775,51.6307647509713],[-0.488177909365534,51.626962996707],[-0.478666488977238,51.622501716937],[-0.476695138061389,51.6218902235827],[-0.46915075929997,51.6168421597683],[-0.464451355443198,51.6147735485096],[-0.459742898262006,51.6131593468933],[-0.457130755473738,51.6122938890699],[-0.455347724742092,51.612701131985],[-0.448878700687709,51.6153253068172],[-0.445548334763496,51.6196247237504],[-0.44325573325963,51.6195027173757],[-0.440575301279442,51.6200732383835],[-0.438282252147841,51.6199223609643],[-0.432730160764855,51.6183485457115],[-0.428395647588457,51.6177521093106],[-0.426481434439677,51.6170070459713],[-0.420902666008495,51.6169331688129],[-0.416617279539307,51.6164250279123],[-0.411985221570793,51.6141826856553],[-0.411000788489722,51.6137917010683],[-0.404003977890064,51.6131839726247],[-0.403215759027032,51.6090989967392],[-0.401760469398902,51.6066197393515],[-0.402478037533898,51.6051903462881],[-0.402337877317186,51.6019398057436],[-0.401172349725285,51.5995605071009],[-0.39992651454445,51.5981789513959],[-0.400334603316673,51.5974161962944],[-0.39769618244992,51.5968808155259],[-0.396501870140447,51.5950527234307],[-0.396366445066841,51.5936159625007],[-0.395532851232754,51.5918844865376],[-0.395573576806697,51.5905935601608],[-0.395490674494017,51.5901938167569],[-0.394459472115783,51.590420406584],[-0.391984929059064,51.5882743635375],[-0.391044193673723,51.5830483172959],[-0.390978402327779,51.5816977634338],[-0.391563901542468,51.581559051105],[-0.388544818560857,51.5776857033657],[-0.387536201348649,51.5752527212504],[-0.388075351840062,51.5749917997125],[-0.385651517379384,51.5721336223829],[-0.386475786941669,51.5715534313032],[-0.385883078066173,51.5708974931874],[-0.383296018626681,51.5672799486546],[-0.382358611270806,51.5648308690813],[-0.382399541453545,51.5636010822359],[-0.381892290346184,51.5630766870671],[-0.38233243396987,51.5628796990634],[-0.380422439051526,51.5608568229896],[-0.380088715629006,51.5595858001673],[-0.380241090382526,51.5590476859232],[-0.377843376019978,51.5549770635102],[-0.377656412711582,51.5546995657334],[-0.385035861073688,51.5512586042035],[-0.392796401622069,51.5489689413701],[-0.394210632799448,51.5486144950032],[-0.394946979967999,51.5487312776824],[-0.394986043334604,51.548038708674],[-0.394879242969686,51.5476465813093],[-0.398706173814887,51.5478973597145],[-0.397890417634814,51.5456669270353],[-0.396540579884704,51.5459670729562],[-0.39634437286305,51.5457040606883],[-0.395285532006663,51.5425516328212],[-0.397831391499307,51.542329964419],[-0.405008718566556,51.5424900659195],[-0.416756112004966,51.5401592575733],[-0.418269884101982,51.5400930288092],[-0.419402613769689,51.5403900828504],[-0.419413609326482,51.5399332437801],[-0.418159934292837,51.5391540381944],[-0.419548090734817,51.5387062290109],[-0.419409329709237,51.5382914102594],[-0.417489782128102,51.5378387030789],[-0.417431210773785,51.5366461544399],[-0.415306149337927,51.5365565818344],[-0.414763950786028,51.535975869528],[-0.413819749243935,51.5357438398819],[-0.413487345767395,51.5347120225219],[-0.41222056534672,51.5344946850869],[-0.411845422020108,51.5340728128224],[-0.411049520079079,51.5342901849694],[-0.405321733528102,51.5332205900389],[-0.392648908258066,51.5314488412762],[-0.389276233506824,51.5308027094094],[-0.387115192662479,51.5295742113576],[-0.386642781660345,51.5303991543713],[-0.380996722618005,51.5294116942163],[-0.376371680549651,51.5288849019863],[-0.376145316078738,51.5249452053795],[-0.381788639446717,51.5186204239688],[-0.383429331370769,51.5174891940024],[-0.383430682302964,51.5174879617836],[-0.384947709027511,51.5163736841754],[-0.38911607191857,51.5146651690058],[-0.390422060131917,51.5132045617256],[-0.393513489171671,51.5070117288873],[-0.40023371074684,51.5042927083694],[-0.402859076450413,51.5035818364065],[-0.403819232556505,51.5029338442389],[-0.403833880792223,51.5029193913846],[-0.406918399587474,51.499666397136],[-0.409221185586189,51.5003295625121],[-0.40963795368194,51.4999359106597],[-0.410824254026211,51.4977394286179],[-0.41053842709551,51.4962068107808],[-0.411429611768479,51.4948583538546],[-0.411846360332265,51.4924365390241],[-0.412630495035642,51.4885281335225],[-0.413314897699202,51.4872243406825],[-0.413928076156038,51.4872201155145],[-0.414537371041991,51.4864428787346],[-0.414589867349905,51.4861695026285],[-0.413972371112925,51.4860774703962],[-0.414732909190859,51.4855691594707],[-0.416207131304551,51.4829604176149],[-0.41692034965768,51.4824628925043],[-0.416402112037153,51.4821086986522],[-0.41674675099563,51.4805712367647],[-0.414890863109542,51.4769085919992],[-0.41577488458582,51.4739385114732],[-0.414738221996228,51.4734217001014],[-0.412866178871015,51.4713396051264],[-0.411363360666867,51.4704983164105],[-0.41113166386798,51.4698875138532],[-0.420209163731638,51.4671420690877],[-0.420282077206307,51.4667813054154],[-0.421924734333478,51.4666240532399],[-0.433596848004709,51.4617176947799],[-0.436579316441717,51.4578514003482],[-0.434786162764005,51.4570946413417],[-0.434997243798071,51.4568836637486],[-0.441424059282673,51.4567775467668],[-0.443949638873137,51.4532905913539],[-0.449122696011472,51.4538057063441],[-0.453782881340728,51.4548534679463],[-0.453949876033812,51.455451993855],[-0.455421771421196,51.4556238975179],[-0.455363519486257,51.4552822900821],[-0.455735987025624,51.4552323141021],[-0.458723754309907,51.4563417400208],[-0.461113245329111,51.4571743995283],[-0.468764042358764,51.4578335586446],[-0.473617541485337,51.4585767285441],[-0.476054109765015,51.4600823247337],[-0.476481138422562,51.460595057229],[-0.475912440424056,51.4607922423229],[-0.477154075467776,51.4613753644896],[-0.48619975341885,51.4613666636627],[-0.489617451707073,51.4617956214182],[-0.492154235722143,51.4629883034629],[-0.493866101952904,51.4627634634345],[-0.496941186913499,51.4658495693354],[-0.498097277725186,51.4664407991776],[-0.501015709361946,51.4673144407033],[-0.504252974031127,51.4677662824224],[-0.506380359413811,51.4677518533917],[-0.507295325694769,51.46694357409],[-0.508788421574085,51.4671033022215],[-0.510241120496709,51.4675003477871],[-0.509807321692741,51.469207263699],[-0.50849877081596,51.469418430125],[-0.505942270589562,51.4724787215008],[-0.503494938672219,51.4805200375233],[-0.501955132674415,51.4828581439587],[-0.498699721684486,51.4860799050688],[-0.498996806746307,51.4867248604899],[-0.499675950001652,51.4868342373273],[-0.499024434028171,51.4878581977782],[-0.499169215876422,51.4885812127518],[-0.498307585240541,51.4884551116815],[-0.497978110137033,51.4888824920995],[-0.498629785052795,51.4892613969405],[-0.497382045763709,51.4898829703282],[-0.496650754037745,51.4898268500849],[-0.496761568359183,51.4904874017411],[-0.495986207409483,51.4905430843739],[-0.494942278304082,51.4913173740295],[-0.495348927702837,51.4920465404394],[-0.494830416382882,51.4926576566596],[-0.491444676643396,51.4930637190784],[-0.490116783229529,51.494578915093],[-0.490024731164425,51.4947476343761],[-0.489627338591989,51.495525783791],[-0.488702732485759,51.4959742724906],[-0.48902468302824,51.497367721417],[-0.489506678817567,51.4975609699402],[-0.488852671675367,51.4985596727854],[-0.489597588650347,51.4986448054288],[-0.489764829162995,51.4989895634957],[-0.488759525420495,51.5001977553745],[-0.487496398030058,51.5003586155767],[-0.487235553476811,51.5009689704583],[-0.4862629163842,51.5008633482739],[-0.486297608734147,51.5017720117714],[-0.485226935454765,51.5025791757932],[-0.484693041916118,51.5036005390496],[-0.48529156049607,51.5040178683769],[-0.484895757342036,51.5043733430592],[-0.485095648943368,51.5051663427137],[-0.483950090929856,51.5056874739103],[-0.483266374938188,51.5066408004726],[-0.483268224863511,51.507213629263],[-0.48402411224431,51.5076878525353],[-0.48359100657625,51.5080806079957],[-0.48585399694688,51.5098431066148],[-0.485535852064559,51.5100278072057],[-0.48978652323901,51.5115268277441],[-0.489921430798479,51.5134142426758],[-0.489560812101573,51.5140777104967],[-0.491199327048256,51.5152570397382],[-0.492329767424708,51.5170771624043],[-0.491631096332019,51.5188972053368],[-0.490366717444449,51.5201695043114],[-0.491173211463826,51.5212796778695],[-0.49052218356144,51.5224825600363],[-0.490256627097217,51.524585049279],[-0.490819364282009,51.5264437944159],[-0.489455604889582,51.527619511415],[-0.488973661709899,51.5290887439157],[-0.489886983581709,51.5304369232726],[-0.49012850555366,51.5320711943432],[-0.491188814012385,51.5332727220915],[-0.490481810396702,51.5341574616926],[-0.491207260895676,51.5343250132565],[-0.491595796808793,51.534917212542],[-0.493328796553323,51.5358369175953],[-0.49548974434616,51.5384292051746],[-0.493584924005186,51.5410053655918],[-0.491806813320703,51.541573231912],[-0.492098080580767,51.5424483388242],[-0.491074733262535,51.5445312736857],[-0.490782112817112,51.5450419253948],[-0.491564434879796,51.5453288666394],[-0.491392581552945,51.5460775628676],[-0.489311370782817,51.5463834974919],[-0.489514221844471,51.5471809735509],[-0.488148901429543,51.5474304764992],[-0.486597107292304,51.5500344688509],[-0.484227716383995,51.5514551779618],[-0.482664861360182,51.5515222526255],[-0.478882100802227,51.5548362747227],[-0.477784298092541,51.5548382089473],[-0.477329883021475,51.5552720832683],[-0.476595819817008,51.5580311852176],[-0.476986931705237,51.5596252765524],[-0.477518912026973,51.5602823164539],[-0.480421055378501,51.560814481341],[-0.481040707828238,51.5607056439611],[-0.480752350677791,51.5617809361181],[-0.482793741222473,51.5628216670497],[-0.482245240435,51.5639152603494],[-0.483221553434395,51.5651400558323],[-0.482578819452941,51.5657261350855],[-0.484762571793146,51.56687115375],[-0.484012855777258,51.5711957221931],[-0.485061222329002,51.5722991674611],[-0.485533844261732,51.5738410504324],[-0.484541753875331,51.5742958849802],[-0.484026266081064,51.5751273259548],[-0.488060351626916,51.5764580340244],[-0.488120815477178,51.5769416440552],[-0.488935439625814,51.5772713506259],[-0.48946612053725,51.578154935671],[-0.488553064489496,51.5796188295664],[-0.489602980617373,51.5817724933395],[-0.494825295709162,51.5847772579626],[-0.494941539394957,51.5865466395099],[-0.49574126561331,51.5881160398712],[-0.497209494067828,51.5893389023286],[-0.497912383295883,51.5909610738609],[-0.498822083760922,51.5912182113508],[-0.498620530740637,51.5919017193028],[-0.499542328397435,51.5921428243313],[-0.498782490579854,51.5930763892543],[-0.498568487558822,51.5944440243722],[-0.499401600021716,51.5953152441763],[-0.499634636476258,51.5967032382661],[-0.500544826185814,51.5985220420138],[-0.500595886737316,51.5996898986458],[-0.500827277038045,51.6002503758403],[-0.500169839989581,51.6012284186599],[-0.499231467220527,51.6013715457564],[-0.498117513597482,51.6009103970275],[-0.497385262759285,51.6009594796298],[-0.496676942360353,51.6014207036741],[-0.496257603641733,51.6024440352721],[-0.49711034664165,51.6031635301863],[-0.497200381387699,51.604810241735],[-0.498562120178398,51.6083125548447],[-0.499214909481778,51.6088811068051],[-0.498377553874772,51.6094024686455],[-0.498934567264451,51.6101604310129],[-0.498939388796522,51.6110651003514],[-0.497775375185582,51.6144321560368],[-0.497033626983844,51.6148758700868],[-0.495321906681722,51.6189375451024],[-0.4968685670868,51.6205237728091],[-0.499111058443274,51.6210328056009],[-0.500148673577685,51.6220718781112],[-0.500047387696966,51.62365409398],[-0.498370277589076,51.6247440907208],[-0.497635161966895,51.6266176409299],[-0.500147340423195,51.6286397023834],[-0.499965026435791,51.6291733043795],[-0.499261609188921,51.6304798524868],[-0.497127638653444,51.6316791106854],[-0.496147547043516,51.6317362556644],[-0.495524794108788,51.6311685214681],[-0.494210180014142,51.631052313393]]]},"properties":{"LAD25CD":"E09000017","LAD25NM":"Hillingdon"}},{"type":"Feature","geometry":{"type":"MultiPolygon","coordinates":[[[[-0.326393087573391,51.4608910466797],[-0.326393507395222,51.4608855096818],[-0.326431627740711,51.4609192263351],[-0.326393087573391,51.4608910466797]]],[[[-0.323685889149201,51.4651174725347],[-0.324339632665799,51.4645666343785],[-0.323989114919517,51.4649818122554],[-0.323710137750819,51.4651066234896],[-0.323685889149201,51.4651174725347]]],[[[-0.321735939727372,51.4653628012978],[-0.322575004039864,51.4653412678077],[-0.321737472892495,51.4653642962179],[-0.321735939727372,51.4653628012978]]],[[[-0.319775972807438,51.4706804555108],[-0.320907288566913,51.4659823178702],[-0.32129999589734,51.4668746042213],[-0.321219446746203,51.4695613233583],[-0.320469082621924,51.4704696172664],[-0.319775972807438,51.4706804555108]]],[[[-0.297668853644578,51.4852223187788],[-0.298568514580154,51.4841123403349],[-0.29903900198016,51.4846672667938],[-0.298651083818592,51.4845152591702],[-0.298112306470681,51.4848493291138],[-0.29843689053787,51.4850366785213],[-0.297892833795384,51.4852280890686],[-0.297889192520987,51.485229369858],[-0.297749237110034,51.4852786093613],[-0.297624608081035,51.485276905383],[-0.297667537218587,51.4852239426422],[-0.297668853644578,51.4852223187788]]],[[[-0.280426226075598,51.4847965634769],[-0.280799184729689,51.4847220171589],[-0.281799392857364,51.4853553707036],[-0.280426226075598,51.4847965634769]]],[[[-0.244779454490665,51.4880006360864],[-0.247566423995083,51.4865414212684],[-0.246235610853322,51.4875903141663],[-0.244907411777773,51.4881756589558],[-0.244477991114727,51.488273998848],[-0.244779454490665,51.4880006360864]]],[[[-0.280772402092,51.5028475273753],[-0.277402382334547,51.4990864619229],[-0.274176319018755,51.4972927919943],[-0.272401695976202,51.4961562082685],[-0.271303045031441,51.4948013563848],[-0.269061038858674,51.4940263209257],[-0.267676633366511,51.4939192512037],[-0.261483309223535,51.494641320646],[-0.255422123395226,51.4949783438977],[-0.255606406879975,51.496033357025],[-0.252771583657548,51.4998884971779],[-0.253040909966186,51.5014223342239],[-0.251290048414711,51.4998583601625],[-0.249203165323049,51.4969498993697],[-0.245929225229688,51.4981413308624],[-0.245259712183608,51.4983397078799],[-0.245238856675817,51.4983063553719],[-0.24498272220723,51.4978967460234],[-0.244419991253253,51.4979389124486],[-0.245565857109029,51.4900526460943],[-0.244942229294421,51.4890016985478],[-0.24451713921975,51.488702205231],[-0.247638033090757,51.4873410393304],[-0.249713346511328,51.4856935360615],[-0.249430245279678,51.4855638647573],[-0.251401184465005,51.4821782819246],[-0.251528006063237,51.477334450797],[-0.252697152941449,51.47505827993],[-0.25465189688673,51.4729080141478],[-0.258065991599084,51.4716593125862],[-0.262135076139299,51.4713572419645],[-0.265678740766768,51.4719240444414],[-0.269125135946822,51.4735505285817],[-0.273062253676309,51.4769681185059],[-0.273419112786653,51.4775902574642],[-0.275271526366799,51.4808194259604],[-0.276716500370242,51.4833380069613],[-0.281565624776101,51.4862871597497],[-0.286444158997584,51.4874956413545],[-0.287249571787035,51.4879314068689],[-0.287419998761071,51.487656066785],[-0.287446558347857,51.4876131574173],[-0.29246184737579,51.4874637752075],[-0.292666556532097,51.4873943219206],[-0.298851188389534,51.4852957532123],[-0.299015599335621,51.485306158448],[-0.300401978823454,51.4839770461315],[-0.299966155102813,51.484135747786],[-0.299717357017977,51.4832580510421],[-0.300506280910718,51.4837938380008],[-0.301419643566376,51.4833768622793],[-0.300362665544346,51.4835079564147],[-0.300182139329026,51.4831685637459],[-0.301018237405761,51.4829931762077],[-0.303394335185601,51.4825936670033],[-0.304205643154527,51.483222298006],[-0.305088070374836,51.4826707593625],[-0.306273189577842,51.4827926420151],[-0.304863917245117,51.4822963825956],[-0.304022434109203,51.482958411292],[-0.304384941608407,51.4821736428588],[-0.300090794900859,51.482700518152],[-0.300928659769566,51.4817018735286],[-0.303537537149551,51.4798974757339],[-0.304118608429246,51.4796068711793],[-0.30466779992558,51.4799237100402],[-0.304277874919713,51.479603328629],[-0.304648075122245,51.4796010364277],[-0.304463100208062,51.4791325403417],[-0.305213651866614,51.4782706460742],[-0.305750249258055,51.4783440455448],[-0.305357507496577,51.4781387334365],[-0.306175135457294,51.4769617093986],[-0.307066052835895,51.4770446264179],[-0.306264366546903,51.4768658769226],[-0.306930916350892,51.4762095919569],[-0.308073590263858,51.4756447050772],[-0.308041046179009,51.4758627580488],[-0.308748909036499,51.475879713042],[-0.308233813119794,51.4755759742521],[-0.309314150662648,51.4750214252512],[-0.30958681473946,51.4752416266004],[-0.309351238079197,51.4749725008965],[-0.309765992562579,51.4751664236192],[-0.309507088825394,51.4749050553143],[-0.310104001396786,51.4749235500241],[-0.309993236694313,51.4746670151125],[-0.310616580929483,51.47492508991],[-0.31024962371033,51.4745286272883],[-0.310662544855287,51.4746941939083],[-0.310625878190218,51.4743807250179],[-0.311151968172075,51.4747183288916],[-0.310716413385483,51.474327174628],[-0.311318477587845,51.474557062276],[-0.311309301329686,51.4741423736526],[-0.311651565959442,51.4744472031058],[-0.311336593435763,51.4740856639586],[-0.311845620076269,51.4743393883273],[-0.311460470930404,51.4740065147076],[-0.312032288119697,51.4742170788416],[-0.31164348759516,51.4739246197328],[-0.312017079611213,51.473751045923],[-0.312467364494379,51.4739967280488],[-0.312171291136956,51.473708302731],[-0.312711985422259,51.4738842439448],[-0.312469974892922,51.4736721346134],[-0.312959625449747,51.473748422139],[-0.312903510373546,51.473512909368],[-0.313445725858076,51.4739015428378],[-0.313100772503876,51.4734545976895],[-0.313880791919316,51.4734662647854],[-0.313856170071864,51.4731965839625],[-0.314206493909516,51.4734588072332],[-0.313918302869092,51.473190732875],[-0.314300078932249,51.4732636653041],[-0.314290539586241,51.4730535521883],[-0.3147169413047,51.473400498158],[-0.31441885917653,51.47297086666],[-0.316000143964369,51.4724633834158],[-0.316248928493035,51.4726599356843],[-0.316196519334359,51.4724015467219],[-0.319046105164867,51.4715007155649],[-0.319066203178041,51.4714943617543],[-0.320198710395752,51.4713042996091],[-0.321446013955583,51.4704894499813],[-0.322532386022837,51.470685745068],[-0.322486128831666,51.470474657842],[-0.321497404720767,51.4704034074973],[-0.322233578524099,51.4690371834751],[-0.321774169058415,51.4654317951065],[-0.322901717117316,51.4653657560728],[-0.323453977352303,51.4653334064436],[-0.323514029036673,51.4653298883641],[-0.324037805499754,51.4650424208893],[-0.324824785931235,51.464368436178],[-0.325205783547585,51.4638367966553],[-0.325343873296781,51.4637204372582],[-0.325716053946399,51.463124752369],[-0.326777994434598,51.4616428152187],[-0.326861258371947,51.4612917160872],[-0.326886287042126,51.4612516536725],[-0.326877324873667,51.4612451006262],[-0.326892872521222,51.4611584088897],[-0.326437229594522,51.4608636956417],[-0.326739097422449,51.460052725057],[-0.326482458281992,51.4605318688078],[-0.326410054676839,51.4606670432488],[-0.326513406711705,51.4593024652394],[-0.325588217827617,51.4580808621088],[-0.326934014640788,51.457010898985],[-0.328455258887979,51.457999095031],[-0.330373639818618,51.457933566535],[-0.331400259935538,51.4573568789254],[-0.333027908582819,51.4553783475546],[-0.333616069775311,51.4552400726575],[-0.333692637193721,51.4554909237007],[-0.33627331434432,51.4556789083336],[-0.336982324195838,51.4546481885414],[-0.337512639549886,51.4547671980055],[-0.337736793521605,51.4554752597119],[-0.338548700277405,51.4560992557628],[-0.338953300500773,51.455881017194],[-0.340644811569025,51.4572689071401],[-0.340111328286192,51.4592412556223],[-0.341706616118169,51.4590172879508],[-0.342735402175869,51.4580717794148],[-0.345289190489759,51.4578593815009],[-0.346024097188038,51.4572598739348],[-0.348569300602764,51.4567646671116],[-0.352810773187725,51.4568638208737],[-0.353487090513193,51.4581802370447],[-0.355812842546929,51.4583807045841],[-0.359854797465852,51.4582018559819],[-0.362636099233493,51.4576832692045],[-0.364419302861009,51.4575872315904],[-0.36503235055546,51.4578055839788],[-0.367837401588697,51.4574249216221],[-0.368435236749007,51.4568626131562],[-0.369564447011299,51.4569676508617],[-0.369570162557889,51.4569681844571],[-0.372439929994924,51.4572354155837],[-0.372687650270116,51.4569976479221],[-0.373024056271843,51.4574730203045],[-0.375258068480552,51.4562711366328],[-0.383751479151189,51.4495061829907],[-0.384490171047228,51.4498948963532],[-0.387786648191089,51.4493713172204],[-0.386257004588281,51.4481240822175],[-0.386223447876444,51.4467121001041],[-0.382905141601064,51.4450951336479],[-0.379747633102291,51.4443217421431],[-0.379546064371273,51.4431036722474],[-0.378205143117411,51.4424842929923],[-0.377126285412797,51.4424596270295],[-0.375926680168315,51.4430871186987],[-0.373881385979297,51.443033978963],[-0.37307817455589,51.4436692776221],[-0.367098818227581,51.4417006797991],[-0.366823470215651,51.4416233263017],[-0.377761461379696,51.4368194162888],[-0.377871941022836,51.4362797841464],[-0.37609256289144,51.435506267829],[-0.376157260562842,51.4354671463239],[-0.383150312332945,51.4322384445112],[-0.387726274714751,51.4288877273969],[-0.387934644192034,51.4286236365479],[-0.387103166507676,51.4281760160043],[-0.388057123788859,51.4278496953732],[-0.388387260380427,51.4279972704624],[-0.384081926037091,51.4226923923139],[-0.384951484237788,51.4212588662029],[-0.385430928192615,51.4206290155842],[-0.391019331671074,51.4231458321575],[-0.392754332190993,51.4234436086864],[-0.392912348231466,51.4232769175458],[-0.39131707100993,51.4223154118767],[-0.394511657485767,51.4232382782889],[-0.398112219660125,51.4235564501956],[-0.401759735010021,51.4233122011115],[-0.405361519526498,51.4224799819693],[-0.407775633374297,51.423578389673],[-0.408441393437487,51.4238347478796],[-0.409006533109657,51.4254511801596],[-0.410868379205712,51.4273423254811],[-0.413086017775112,51.4278552909721],[-0.412452594196594,51.4287818975866],[-0.414352303011755,51.4292958317008],[-0.413806058184536,51.4300752972818],[-0.417900391369536,51.4310280393694],[-0.417294140034465,51.4319181779923],[-0.418356202174201,51.4318667918754],[-0.418583730845841,51.4321099649615],[-0.419078640341703,51.4323594356569],[-0.421153880112781,51.4321715193348],[-0.423579568058236,51.4311610490153],[-0.423498704137031,51.4308776011312],[-0.427485561864324,51.4308195783667],[-0.427831380170741,51.4292523685952],[-0.429424721185525,51.4293950423441],[-0.429534400842161,51.4287976166233],[-0.432639793866264,51.4290180740907],[-0.439983256299083,51.4306264500554],[-0.439752292782007,51.4346195966386],[-0.447716870984933,51.4350029824266],[-0.446288585067704,51.4399964192609],[-0.453660346816655,51.4384940756072],[-0.456475091199213,51.4382245454754],[-0.455391174524668,51.4421192253704],[-0.457443722592711,51.4429987879986],[-0.457461624027761,51.4490906299151],[-0.46148169282775,51.4489923766646],[-0.461319944712023,51.4523912628267],[-0.459838360775427,51.4522395478114],[-0.459294048144444,51.4527153348849],[-0.458723754309907,51.4563417400208],[-0.455735987025624,51.4552323141021],[-0.455363519486257,51.4552822900821],[-0.455421771421196,51.4556238975179],[-0.453949876033812,51.455451993855],[-0.453782881340728,51.4548534679463],[-0.449122696011472,51.4538057063441],[-0.443949638873137,51.4532905913539],[-0.441424059282673,51.4567775467668],[-0.434997243798071,51.4568836637486],[-0.434786162764005,51.4570946413417],[-0.436579316441717,51.4578514003482],[-0.433596848004709,51.4617176947799],[-0.421924734333478,51.4666240532399],[-0.420282077206307,51.4667813054154],[-0.420209163731638,51.4671420690877],[-0.41113166386798,51.4698875138532],[-0.411363360666867,51.4704983164105],[-0.412866178871015,51.4713396051264],[-0.414738221996228,51.4734217001014],[-0.41577488458582,51.4739385114732],[-0.414890863109542,51.4769085919992],[-0.41674675099563,51.4805712367647],[-0.416402112037153,51.4821086986522],[-0.41692034965768,51.4824628925043],[-0.416207131304551,51.4829604176149],[-0.414732909190859,51.4855691594707],[-0.413972371112925,51.4860774703962],[-0.414589867349905,51.4861695026285],[-0.414537371041991,51.4864428787346],[-0.413928076156038,51.4872201155145],[-0.413314897699202,51.4872243406825],[-0.412630495035642,51.4885281335225],[-0.411846360332265,51.4924365390241],[-0.411429611768479,51.4948583538546],[-0.41053842709551,51.4962068107808],[-0.410824254026211,51.4977394286179],[-0.40963795368194,51.4999359106597],[-0.409221185586189,51.5003295625121],[-0.406918399587474,51.499666397136],[-0.389375031127265,51.4951579350217],[-0.386575408414563,51.4946852990474],[-0.384546938967056,51.4946830551931],[-0.381841111112896,51.4952239999719],[-0.377876677159829,51.4966066454792],[-0.377903011367198,51.4954693003247],[-0.375823922335663,51.4953916108452],[-0.375012564856431,51.4939960252446],[-0.373809044711411,51.4919601492431],[-0.37249726445803,51.4910277041521],[-0.371919091997922,51.4909905553857],[-0.371851047191365,51.4904761549128],[-0.367912694991677,51.4917891591151],[-0.368354836430718,51.492298900671],[-0.366986978925952,51.4928033785343],[-0.365794059745001,51.4936539066133],[-0.365363324880322,51.4933136768236],[-0.363734025283402,51.4946959784486],[-0.363117893266542,51.4958757777258],[-0.36187789583015,51.4960874183171],[-0.358052570966066,51.497767974407],[-0.350619148399036,51.4991066570781],[-0.349708960195708,51.4989814550508],[-0.342278725726975,51.4959877947085],[-0.335264555913964,51.496157912716],[-0.331231243629166,51.4955095577543],[-0.329945002137216,51.4950205315316],[-0.327341220314482,51.4960024130722],[-0.326127384627688,51.495003655658],[-0.324675743393902,51.4959937592392],[-0.323898551965763,51.4957165614759],[-0.323414300516202,51.4958965878765],[-0.31918147076384,51.494217300145],[-0.315794343146763,51.4959073462949],[-0.31528026854231,51.4955548539354],[-0.315712070935597,51.495348247441],[-0.31446791118935,51.4943572972709],[-0.315085314491169,51.4939643848471],[-0.314388695555614,51.4934571216358],[-0.313884658435713,51.4936080917017],[-0.311911168808834,51.4919714576592],[-0.308405375534104,51.4935741223266],[-0.305431203745424,51.4945373621448],[-0.305851829897637,51.4961828825053],[-0.301377122233943,51.495194213918],[-0.301132918675038,51.4944055623441],[-0.297537161815247,51.4948847143544],[-0.299946959438523,51.4978560126734],[-0.300669386722828,51.4993292247146],[-0.293897823008893,51.5015775552208],[-0.288668716199761,51.5008324169837],[-0.285711510361579,51.500783729505],[-0.280772402092,51.5028475273753]]]]},"properties":{"LAD25CD":"E09000018","LAD25NM":"Hounslow"}},{"type":"Feature","geometry":{"type":"Polygon","coordinates":[[[-0.22756201378156,51.5301545992211],[-0.227659506765089,51.5299143220922],[-0.225433971441795,51.5301603013706],[-0.223728265491944,51.5299467910539],[-0.217791000545462,51.5286004244015],[-0.216020723983129,51.527920360249],[-0.21549666909487,51.5267185870776],[-0.212960661863203,51.52688394278],[-0.207297353929911,51.5262345157409],[-0.206017430034413,51.5258542108062],[-0.203953081013443,51.5235327279873],[-0.201625846701851,51.5227421489335],[-0.200620363638551,51.5207117799079],[-0.202649698006663,51.5208947467866],[-0.203742321009568,51.5206243246734],[-0.201449310818032,51.5178042330809],[-0.200765178561406,51.5179838614387],[-0.199907498009142,51.5168401945293],[-0.199171143961617,51.5145409773787],[-0.195052992094996,51.5150401067145],[-0.194004101884694,51.5117006870548],[-0.192915313999014,51.5118428636856],[-0.192123026589169,51.5098777386719],[-0.189079662133421,51.5101238446144],[-0.187859378088,51.5101947167436],[-0.184204941023171,51.5017888524153],[-0.180311745243243,51.5014622342186],[-0.179523790495782,51.4977811999358],[-0.173418772260889,51.4982311819805],[-0.168149601678426,51.4990332262627],[-0.167578430986111,51.4982804215346],[-0.165718041043788,51.4992190700843],[-0.165419106384145,51.4986854876498],[-0.162645857685283,51.5002297524341],[-0.160900957801054,51.5016769308879],[-0.158457848304668,51.5022261968961],[-0.157872281859908,51.4990035349136],[-0.156056937706088,51.4977756229234],[-0.155248805698977,51.4950540493716],[-0.155778957935669,51.4947199124768],[-0.155978849547772,51.4944629954911],[-0.154973307336501,51.4938262892371],[-0.155962988061772,51.4932005305742],[-0.154742871175929,51.4919711717561],[-0.155800936370808,51.4914645586075],[-0.155169196968643,51.4900390378154],[-0.155834442321332,51.4896139833739],[-0.150160100799982,51.4860367426476],[-0.150023744697209,51.4854624391586],[-0.163771181661117,51.4836373685652],[-0.163774238420258,51.4836369622996],[-0.16378022447888,51.4836361675562],[-0.175759293976535,51.4816197791138],[-0.177682134129641,51.4803506917247],[-0.17751415416621,51.4801025831619],[-0.179262186029739,51.4779939912427],[-0.180816283019759,51.4779160435822],[-0.182162460543091,51.4773851233162],[-0.183717737563274,51.4774310161456],[-0.183805527855666,51.4774336059909],[-0.183876303255074,51.4774431317481],[-0.186521019063067,51.4798688451479],[-0.188262412705968,51.4809666762654],[-0.19077081676291,51.483165686506],[-0.193630274569299,51.4858905019148],[-0.195906065404788,51.4873707105146],[-0.196405191810415,51.4871869018364],[-0.197966108552929,51.4879071841827],[-0.202364641392252,51.4916615386255],[-0.201833011307257,51.4918452953471],[-0.203085508305625,51.4933714670801],[-0.20733489853243,51.4961527942183],[-0.207951410590124,51.4960315668214],[-0.210504590283717,51.4983468511015],[-0.213440028889613,51.5001774665915],[-0.215028905986165,51.502185301436],[-0.216976653096357,51.504466149606],[-0.217001985360401,51.5045041715512],[-0.217975379717538,51.5061431105204],[-0.215938670705129,51.506400335939],[-0.21611922117336,51.5075212021927],[-0.215197890345675,51.5076513520936],[-0.215541653076812,51.5083920444881],[-0.215813858155986,51.50915345265],[-0.216452382074861,51.5091126499001],[-0.217190220202911,51.5103992438768],[-0.218043289167948,51.5102242389612],[-0.217847732543837,51.5097526992018],[-0.219315925780897,51.5095542975641],[-0.220235964075799,51.5117327975875],[-0.222464368050734,51.5154070123675],[-0.22654329333555,51.5195770779274],[-0.228276943623204,51.5210951812624],[-0.226696960668858,51.5219392475958],[-0.22656793126906,51.5246259086028],[-0.227229453930617,51.5247772390701],[-0.227429972121213,51.5279963598706],[-0.228730175524929,51.5299056451657],[-0.228440758153743,51.5303191562848],[-0.22756201378156,51.5301545992211]]]},"properties":{"LAD25CD":"E09000020","LAD25NM":"Kensington and Chelsea"}},{"type":"Feature","geometry":{"type":"Polygon","coordinates":[[[-0.174128478544183,51.5382616885941],[-0.173476990559195,51.5376463903178],[-0.171934140702352,51.5384038512207],[-0.170876388503664,51.5377782480577],[-0.169447390913976,51.5385935575131],[-0.164898867211156,51.5357846395308],[-0.160396596135671,51.5372985101376],[-0.159351924771759,51.5363396423738],[-0.152701824938766,51.5375095403736],[-0.147123640879697,51.5250347421722],[-0.145764043772245,51.5252668132184],[-0.145205616696418,51.5239889702526],[-0.14408751434632,51.5239975294581],[-0.143986909810925,51.5246782216528],[-0.143384543178008,51.5245483930348],[-0.143544818600121,51.5239659654064],[-0.142844961598762,51.5238676797066],[-0.136961309094795,51.5188866189792],[-0.136278097237986,51.5191571733866],[-0.135797668689083,51.5186853550004],[-0.13520781378243,51.518929715323],[-0.134006210429943,51.5175472512074],[-0.133531598252919,51.5176972858276],[-0.132406111775616,51.5171171634979],[-0.132516418534426,51.5166730885835],[-0.130782502682123,51.5170819805722],[-0.130326509997426,51.5164195906224],[-0.129610815866559,51.5139988087359],[-0.128949099459364,51.5134147753338],[-0.127646380675082,51.5126789292831],[-0.127169746226547,51.512705102455],[-0.122853761042668,51.5151401988454],[-0.12206608989202,51.514615206955],[-0.121796317287431,51.5148688986258],[-0.119451253170614,51.5145022552862],[-0.114694811598885,51.5160264746857],[-0.113825664039223,51.5148236727585],[-0.111567824442113,51.5153350290831],[-0.111057012329661,51.5138292226959],[-0.111935793019154,51.5136881032003],[-0.111704400673957,51.513190130931],[-0.112508903162863,51.5127275162882],[-0.111555901893517,51.5117999980236],[-0.111502690035089,51.5108337081395],[-0.111564258446105,51.5108329196473],[-0.116892774210445,51.5101040605294],[-0.11954268577267,51.5090624950067],[-0.121128605059339,51.5077497899266],[-0.122392686253247,51.5060614118313],[-0.123055272262188,51.5042280556162],[-0.12311070372754,51.5039087543488],[-0.124707103980221,51.4947109507106],[-0.124729605072858,51.4946105360797],[-0.124730487012703,51.4946065996719],[-0.125395133896375,51.4916402166293],[-0.128375395394043,51.4882254414832],[-0.128391884295819,51.4882065465853],[-0.128393747809419,51.4882044108833],[-0.128406612451762,51.4881896694246],[-0.13249809444204,51.4857302302638],[-0.138099883632503,51.4848071919277],[-0.140037506220274,51.4848207435818],[-0.146453295156885,51.4856772582864],[-0.14735358494889,51.4856297303151],[-0.148996641409196,51.4855429704055],[-0.149069825202255,51.4862077858986],[-0.149694758889763,51.4861056884424],[-0.149215697877333,51.4855221474009],[-0.149982777183601,51.4854678755575],[-0.150023744697209,51.4854624391586],[-0.150160100799982,51.4860367426476],[-0.155834442321332,51.4896139833739],[-0.155169196968643,51.4900390378154],[-0.155800936370808,51.4914645586075],[-0.154742871175929,51.4919711717561],[-0.155962988061772,51.4932005305742],[-0.154973307336501,51.4938262892371],[-0.155978849547772,51.4944629954911],[-0.155778957935669,51.4947199124768],[-0.155248805698977,51.4950540493716],[-0.156056937706088,51.4977756229234],[-0.157872281859908,51.4990035349136],[-0.158457848304668,51.5022261968961],[-0.160900957801054,51.5016769308879],[-0.162645857685283,51.5002297524341],[-0.165419106384145,51.4986854876498],[-0.165718041043788,51.4992190700843],[-0.167578430986111,51.4982804215346],[-0.168149601678426,51.4990332262627],[-0.173418772260889,51.4982311819805],[-0.179523790495782,51.4977811999358],[-0.180311745243243,51.5014622342186],[-0.184204941023171,51.5017888524153],[-0.187859378088,51.5101947167436],[-0.189079662133421,51.5101238446144],[-0.192123026589169,51.5098777386719],[-0.192915313999014,51.5118428636856],[-0.194004101884694,51.5117006870548],[-0.195052992094996,51.5150401067145],[-0.199171143961617,51.5145409773787],[-0.199907498009142,51.5168401945293],[-0.200765178561406,51.5179838614387],[-0.201449310818032,51.5178042330809],[-0.203742321009568,51.5206243246734],[-0.202649698006663,51.5208947467866],[-0.200620363638551,51.5207117799079],[-0.201625846701851,51.5227421489335],[-0.203953081013443,51.5235327279873],[-0.206017430034413,51.5258542108062],[-0.207297353929911,51.5262345157409],[-0.212960661863203,51.52688394278],[-0.21549666909487,51.5267185870776],[-0.216020723983129,51.527920360249],[-0.215855751894516,51.5297523895113],[-0.21510696879434,51.5301701760195],[-0.215266647764194,51.5313605595917],[-0.211186423402787,51.5319254415319],[-0.207814035554874,51.5327920069384],[-0.203061890380871,51.5328950499127],[-0.203013026994402,51.5328955541319],[-0.20167541569191,51.5325599953252],[-0.201079967472329,51.5319058552281],[-0.198174940299363,51.5304179662177],[-0.197801829405802,51.5278996092171],[-0.197339740607098,51.5278926212151],[-0.196479321959949,51.5276386356437],[-0.192997934912252,51.5319835606484],[-0.192347014575535,51.5332608562808],[-0.193016132577393,51.5339498423501],[-0.191467608561554,51.5362923581516],[-0.188722649361543,51.5345305083697],[-0.187821656046345,51.5349639435007],[-0.184160670423868,51.5382285733756],[-0.180114010393227,51.5395649957935],[-0.178343045457858,51.5398080687385],[-0.175765524440825,51.5396167232221],[-0.173911770601983,51.5394732192807],[-0.174128478544183,51.5382616885941]]]},"properties":{"LAD25CD":"E09000033","LAD25NM":"Westminster"}}]}